OBJECT_NAME,OBJECT_ID,EPOCH,MEAN_MOTION,ECCENTRICITY,INCLINATION,RA_OF_ASC_NODE,ARG_OF_PERICENTER,MEAN_ANOMALY,EPHEMERIS_TYPE,CLASSIFICATION_TYPE,NORAD_CAT_ID,ELEMENT_SET_NO,REV_AT_EPOCH,BSTAR,MEAN_MOTION_DOT,MEAN_MOTION_DDOT
CUTE-1 (CO-55),2003-031E,2026-06-29T23:06:24.280128,14.24343456,.00103009,98.6736,189.3610,142.4898,217.7002,0,U,27844,999,19349,.1534011E-3,.311E-5,0
CUBESAT XI-IV (CO-57),2003-031J,2026-06-29T22:59:01.208832,14.23627529,.00097859,98.6768,189.0585,160.0224,200.1339,0,U,27848,999,19319,.13524458E-3,.265E-5,0
CUBESAT XI-V,2005-043F,2026-06-30T09:07:31.727712,14.72666866,.00145552,98.2997,337.2799,159.1785,201.0018,0,U,28895,999,10369,.23930319E-3,.1474E-4,0
CUTE-1.7+APD II (CO-65),2008-021C,2026-06-30T21:41:54.691872,15.09581069,.00083439,97.8277,163.6092,353.8855,6.2270,0,U,32785,999,98726,.39270686E-3,.6246E-4,0
CANX-2,2008-021H,2026-06-30T21:53:14.555328,15.05711696,.00102595,97.8633,161.9575,7.4385,352.6991,0,U,32790,999,98687,.27591546E-3,.3929E-4,0
SEEDS II (CO-66),2008-021J,2026-06-30T23:22:16.171392,15.33219425,.00012545,97.7516,180.5337,192.0562,168.0649,0,U,32791,999,98940,.65941661E-3,.21117E-3,0
SWISSCUBE,2009-051B,2026-06-30T23:43:58.398240,14.62507548,.00069679,98.4025,90.1172,158.7249,201.4242,0,U,35932,999,89117,.21680637E-3,.105E-4,0
BEESAT-1,2009-051C,2026-06-30T12:37:55.598880,14.61741181,.00051336,98.3953,89.2540,171.1167,189.0125,0,U,35933,999,89113,.17585542E-3,.828E-5,0
ITUPSAT1,2009-051E,2026-06-29T16:57:44.860608,14.60458458,.00069532,98.4038,87.6006,190.2945,169.8114,0,U,35935,999,89056,.16667647E-3,.759E-5,0
TISAT 1,2010-035E,2026-06-30T20:00:43.889184,15.32224933,.00032228,98.0710,129.5985,145.2416,214.9035,0,U,36799,999,86979,.75354886E-3,.23408E-3,0
AEROCUBE 4.5A,2012-048K,2026-06-29T19:35:03.540480,16.17962819,.00188678,64.6148,340.0554,267.4936,92.4076,0,U,38767,999,37468,.11805476E-2,.2026816E-1,.7424434E-5
STRAND-1,2013-009E,2026-06-30T11:49:53.734656,14.37171160,.00084907,98.3924,1.4000,183.0829,177.0307,0,U,39090,999,69897,.11203189E-3,.291E-5,0
BRITE-AUSTRIA,2013-009F,2026-06-30T22:18:31.190688,14.36547510,.00098551,98.3999,1.0254,192.4846,167.6098,0,U,39091,999,69902,.78102164E-4,.187E-5,0
NEE-01 PEGASO,2013-018B,2026-06-30T20:44:47.312736,14.93727352,.00136732,98.1239,326.4679,117.3878,242.8734,0,U,39151,999,71274,.27949679E-3,.2902E-4,0
POPACS 2,2013-055E,2026-06-30T04:38:01.187520,14.91555130,.04162574,80.9915,129.3032,152.0121,210.4183,0,U,39269,999,66515,.23496664E-3,.14049E-3,0
POPACS 3,2013-055F,2026-06-30T12:25:00.510528,14.56368469,.05507456,80.9995,214.7325,29.4231,333.6798,0,U,39270,999,64049,.24027678E-3,.10184E-3,0
ZACUBE-1 (TSHEPISOSAT),2013-066B,2026-06-30T22:30:48.329568,15.01262799,.00427237,97.8043,144.3451,201.2286,158.7167,0,U,39417,999,68279,.26440292E-3,.34E-4,0
WNISAT-1,2013-066H,2026-06-30T20:49:25.615776,14.58090821,.01628538,97.7218,330.0540,188.3213,171.5282,0,U,39423,999,66872,.24839027E-3,.1323E-4,0
TRITON-1,2013-066M,2026-06-30T22:29:02.330592,14.81749463,.00894008,97.8244,91.4313,188.5240,171.4460,0,U,39427,999,67612,.18724146E-3,.1525E-4,0
GOMX-1,2013-066Q,2026-06-30T22:34:22.498752,14.69505727,.0129513,97.6471,21.5352,33.8479,327.0909,0,U,39430,999,67193,.25369076E-3,.166E-4,0
CUBEBUG-2 (LO-74),2013-066AA,2026-06-30T19:04:32.463552,14.93871723,.00569094,97.8910,130.8314,344.0423,15.9001,0,U,39440,999,67902,.43003152E-3,.4655E-4,0
NEE-02 KRYSAOR,2013-066AB,2026-06-30T19:19:19.470144,14.86680801,.00667657,97.8896,120.9230,26.4051,334.0541,0,U,39441,999,67822,.27637444E-3,.2498E-4,0
FUNCUBE-1 (AO-73),2013-066AE,2026-06-30T20:15:27.507168,15.09653397,.00371398,97.8284,153.5766,154.4436,205.8639,0,U,39444,999,68172,.45304015E-3,.7343E-4,0
UWE-3,2013-066AG,2026-06-30T20:24:53.144640,14.97126889,.00470378,97.8711,138.0184,274.5118,85.0730,0,U,39446,999,67962,.2780667E-3,.3219E-4,0
BRITE-CA1 (TORONTO),2014-033L,2026-06-30T08:31:01.000416,14.72697519,.00774864,97.9755,310.0412,234.1487,125.2508,0,U,40020,999,64415,.1483446E-3,.937E-5,0
DUCHIFAT-1,2014-033M,2026-06-30T21:18:54.299808,15.67539808,.00002574,98.0445,243.0028,110.0507,250.0780,0,U,40021,999,65789,.14340818E-2,.158253E-2,0
NANOSATC-BR1,2014-033Q,2026-06-29T13:16:17.313888,15.31847627,.00051631,98.0715,214.0382,133.3825,226.7845,0,U,40024,999,65587,.50484786E-3,.15457E-3,0
QB50P1,2014-033R,2026-06-30T06:21:04.432032,15.18453201,.00091928,98.0957,193.3288,170.0607,190.0809,0,U,40025,999,65501,.37202082E-3,.7596E-4,0
QB50P2,2014-033Y,2026-06-29T23:27:33.028704,15.15322126,.00090963,98.0748,178.6550,125.6149,234.5930,0,U,40032,999,65460,.3830701E-3,.7152E-4,0
PERSEUS-M2,2014-033AD,2026-06-30T21:54:34.538400,14.95547331,.00103175,97.9970,132.7341,254.1377,105.8706,0,U,40037,999,65283,.37993332E-4,.36E-5,0
